[{"OBJECT_NAME":"STARLINK-2015","OBJECT_ID":"2021-012U","EPOCH":"2026-03-09T22:09:23.404320","MEAN_MOTION":15.30181873,"ECCENTRICITY":0.00011937,"INCLINATION":53.1603,"RA_OF_ASC_NODE":331.3215,"ARG_OF_PERICENTER":95.8181,"MEAN_ANOMALY":264.2956,"EPHEMERIS_TYPE":0,"CLASSIFICATION_TYPE":"U","NORAD_CAT_ID":47638,"ELEMENT_SET_NO":999,"REV_AT_EPOCH":28139,"BSTAR":-4.4390938e-5,"MEAN_MOTION_DOT":-1.673e-5,"MEAN_MOTION_DDOT":0},{"OBJECT_NAME":"SCS-01 H","OBJECT_ID":"2025-100H","EPOCH":"2026-03-09T23:19:05.376864","MEAN_MOTION":15.31767757,"ECCENTRICITY":0.00071581,"INCLINATION":97.3749,"RA_OF_ASC_NODE":145.8085,"ARG_OF_PERICENTER":277.8492,"MEAN_ANOMALY":82.1937,"EPHEMERIS_TYPE":0,"CLASSIFICATION_TYPE":"U","NORAD_CAT_ID":63989,"ELEMENT_SET_NO":999,"REV_AT_EPOCH":4566,"BSTAR":0.0011436254,"MEAN_MOTION_DOT":0.00035149,"MEAN_MOTION_DDOT":0}]
